[{"OBJECT_NAME":"STARLINK-35659","OBJECT_ID":"2025-257F","EPOCH":"2026-03-09T16:13:10.363296","MEAN_MOTION":15.30231809,"ECCENTRICITY":0.00012946,"INCLINATION":53.1599,"RA_OF_ASC_NODE":216.9291,"ARG_OF_PERICENTER":81.9957,"MEAN_ANOMALY":278.1191,"EPHEMERIS_TYPE":0,"CLASSIFICATION_TYPE":"U","NORAD_CAT_ID":66385,"ELEMENT_SET_NO":999,"REV_AT_EPOCH":1973,"BSTAR":0.00063513382,"MEAN_MOTION_DOT":0.00018517,"MEAN_MOTION_DDOT":0},{"OBJECT_NAME":"SIMSAT 1","OBJECT_ID":"2000-026A","EPOCH":"2026-03-09T17:22:54.646176","MEAN_MOTION":15.27666538,"ECCENTRICITY":0.00084816,"INCLINATION":86.3501,"RA_OF_ASC_NODE":180.5413,"ARG_OF_PERICENTER":14.8337,"MEAN_ANOMALY":345.3157,"EPHEMERIS_TYPE":0,"CLASSIFICATION_TYPE":"U","NORAD_CAT_ID":26365,"ELEMENT_SET_NO":999,"REV_AT_EPOCH":42720,"BSTAR":0.00013499313,"MEAN_MOTION_DOT":3.69e-5,"MEAN_MOTION_DDOT":0}]
